CCSDS_OMM_VERS = 2.0
CREATION_DATE  = 
ORIGINATOR     = 

OBJECT_NAME    = YOTSUBA-KULOVER
OBJECT_ID      = 1998-067XN
CENTER_NAME    = EARTH
REF_FRAME      = TEME
TIME_SYSTEM    = UTC
MEAN_ELEMENT_THEORY = SGP/SGP4

EPOCH          = 2026-02-17T07:04:08.726016
MEAN_MOTION    = 15.73292951
ECCENTRICITY   = .00049405
INCLINATION    = 51.6249
RA_OF_ASC_NODE = 162.4501
ARG_OF_PERICENTER = 319.7640
MEAN_ANOMALY   = 40.2992

EPHEMERIS_TYPE = 0
CLASSIFICATION_TYPE = U
NORAD_CAT_ID   = 65941
ELEMENT_SET_NO = 999
REV_AT_EPOCH   = 2028
BSTAR          = .10587789E-2
MEAN_MOTION_DOT = .151622E-2
MEAN_MOTION_DDOT = 0

CCSDS_OMM_VERS = 2.0
CREATION_DATE  = 
ORIGINATOR     = 

OBJECT_NAME    = BOTAN
OBJECT_ID      = 1998-067XP
CENTER_NAME    = EARTH
REF_FRAME      = TEME
TIME_SYSTEM    = UTC
MEAN_ELEMENT_THEORY = SGP/SGP4

EPOCH          = 2026-02-17T06:33:42.738912
MEAN_MOTION    = 15.91598962
ECCENTRICITY   = .00090001
INCLINATION    = 51.6160
RA_OF_ASC_NODE = 157.7353
ARG_OF_PERICENTER = 339.1028
MEAN_ANOMALY   = 20.9609

EPHEMERIS_TYPE = 0
CLASSIFICATION_TYPE = U
NORAD_CAT_ID   = 65942
ELEMENT_SET_NO = 999
REV_AT_EPOCH   = 2034
BSTAR          = .14794116E-2
MEAN_MOTION_DOT = .491628E-2
MEAN_MOTION_DDOT = .10444248E-3

CCSDS_OMM_VERS = 2.0
CREATION_DATE  = 
ORIGINATOR     = 

OBJECT_NAME    = E-KAGAKU-1
OBJECT_ID      = 1998-067XQ
CENTER_NAME    = EARTH
REF_FRAME      = TEME
TIME_SYSTEM    = UTC
MEAN_ELEMENT_THEORY = SGP/SGP4

EPOCH          = 2026-02-17T07:06:16.795008
MEAN_MOTION    = 15.73144865
ECCENTRICITY   = .00049528
INCLINATION    = 51.6273
RA_OF_ASC_NODE = 162.4733
ARG_OF_PERICENTER = 332.5511
MEAN_ANOMALY   = 27.5225

EPHEMERIS_TYPE = 0
CLASSIFICATION_TYPE = U
NORAD_CAT_ID   = 65943
ELEMENT_SET_NO = 999
REV_AT_EPOCH   = 2028
BSTAR          = .10540822E-2
MEAN_MOTION_DOT = .14996E-2
MEAN_MOTION_DDOT = 0

CCSDS_OMM_VERS = 2.0
CREATION_DATE  = 
ORIGINATOR     = 

OBJECT_NAME    = HRC MONOBLOCK CAMERA
OBJECT_ID      = 1998-067XR
CENTER_NAME    = EARTH
REF_FRAME      = TEME
TIME_SYSTEM    = UTC
MEAN_ELEMENT_THEORY = SGP/SGP4

EPOCH          = 2026-02-17T08:13:53.751072
MEAN_MOTION    = 15.60051287
ECCENTRICITY   = .0002182
INCLINATION    = 51.6288
RA_OF_ASC_NODE = 168.0441
ARG_OF_PERICENTER = 16.0438
MEAN_ANOMALY   = 344.0624

EPHEMERIS_TYPE = 0
CLASSIFICATION_TYPE = U
NORAD_CAT_ID   = 66052
ELEMENT_SET_NO = 999
REV_AT_EPOCH   = 1921
BSTAR          = .60321E-3
MEAN_MOTION_DOT = .49612E-3
MEAN_MOTION_DDOT = 0

CCSDS_OMM_VERS = 2.0
CREATION_DATE  = 
ORIGINATOR     = 

OBJECT_NAME    = HTV-X1
OBJECT_ID      = 2025-241A
CENTER_NAME    = EARTH
REF_FRAME      = TEME
TIME_SYSTEM    = UTC
MEAN_ELEMENT_THEORY = SGP/SGP4

EPOCH          = 2026-02-17T04:23:19.361472
MEAN_MOTION    = 15.48657976
ECCENTRICITY   = .00110184
INCLINATION    = 51.6319
RA_OF_ASC_NODE = 173.7204
ARG_OF_PERICENTER = 107.0393
MEAN_ANOMALY   = 253.1803

EPHEMERIS_TYPE = 0
CLASSIFICATION_TYPE = U
NORAD_CAT_ID   = 66174
ELEMENT_SET_NO = 999
REV_AT_EPOCH   = 51
BSTAR          = .18517944E-3
MEAN_MOTION_DOT = .966E-4
MEAN_MOTION_DDOT = 0

CCSDS_OMM_VERS = 2.0
CREATION_DATE  = 
ORIGINATOR     = 

OBJECT_NAME    = SZ-21 MODULE
OBJECT_ID      = 2025-246C
CENTER_NAME    = EARTH
REF_FRAME      = TEME
TIME_SYSTEM    = UTC
MEAN_ELEMENT_THEORY = SGP/SGP4

EPOCH          = 2026-02-17T04:17:16.923840
MEAN_MOTION    = 15.66957917
ECCENTRICITY   = .00019678
INCLINATION    = 41.4766
RA_OF_ASC_NODE = 329.4655
ARG_OF_PERICENTER = 297.4736
MEAN_ANOMALY   = 62.5905

EPHEMERIS_TYPE = 0
CLASSIFICATION_TYPE = U
NORAD_CAT_ID   = 66515
ELEMENT_SET_NO = 999
REV_AT_EPOCH   = 1485
BSTAR          = .34761218E-3
MEAN_MOTION_DOT = .37852E-3
MEAN_MOTION_DDOT = 0

CCSDS_OMM_VERS = 2.0
CREATION_DATE  = 
ORIGINATOR     = 

OBJECT_NAME    = SHENZHOU-22
OBJECT_ID      = 2025-272A
CENTER_NAME    = EARTH
REF_FRAME      = TEME
TIME_SYSTEM    = UTC
MEAN_ELEMENT_THEORY = SGP/SGP4

EPOCH          = 2026-02-17T05:34:10.349472
MEAN_MOTION    = 15.59770251
ECCENTRICITY   = .00041623
INCLINATION    = 41.4683
RA_OF_ASC_NODE = 332.5551
ARG_OF_PERICENTER = 122.3722
MEAN_ANOMALY   = 237.7519

EPHEMERIS_TYPE = 0
CLASSIFICATION_TYPE = U
NORAD_CAT_ID   = 66645
ELEMENT_SET_NO = 999
REV_AT_EPOCH   = 26764
BSTAR          = .35627248E-3
MEAN_MOTION_DOT = .29154E-3
MEAN_MOTION_DDOT = 0

CCSDS_OMM_VERS = 2.0
CREATION_DATE  = 
ORIGINATOR     = 

OBJECT_NAME    = SOYUZ-MS 28
OBJECT_ID      = 2025-275A
CENTER_NAME    = EARTH
REF_FRAME      = TEME
TIME_SYSTEM    = UTC
MEAN_ELEMENT_THEORY = SGP/SGP4

EPOCH          = 2026-02-17T10:35:00.672000
MEAN_MOTION    = 15.48663917
ECCENTRICITY   = .001101
INCLINATION    = 51.6319
RA_OF_ASC_NODE = 172.4442
ARG_OF_PERICENTER = 107.8523
MEAN_ANOMALY   = 252.3667

EPHEMERIS_TYPE = 0
CLASSIFICATION_TYPE = U
NORAD_CAT_ID   = 66664
ELEMENT_SET_NO = 999
REV_AT_EPOCH   = 55319
BSTAR          = .19045E-3
MEAN_MOTION_DOT = .995E-4
MEAN_MOTION_DDOT = 0

CCSDS_OMM_VERS = 2.0
CREATION_DATE  = 
ORIGINATOR     = 

OBJECT_NAME    = DUPLEX
OBJECT_ID      = 1998-067XS
CENTER_NAME    = EARTH
REF_FRAME      = TEME
TIME_SYSTEM    = UTC
MEAN_ELEMENT_THEORY = SGP/SGP4

EPOCH          = 2026-02-17T08:22:05.691936
MEAN_MOTION    = 15.54801882
ECCENTRICITY   = .0001428
INCLINATION    = 51.6298
RA_OF_ASC_NODE = 171.0819
ARG_OF_PERICENTER = 65.9788
MEAN_ANOMALY   = 294.1352

EPHEMERIS_TYPE = 0
CLASSIFICATION_TYPE = U
NORAD_CAT_ID   = 66906
ELEMENT_SET_NO = 999
REV_AT_EPOCH   = 1196
BSTAR          = .57903E-3
MEAN_MOTION_DOT = .38995E-3
MEAN_MOTION_DDOT = 0

CCSDS_OMM_VERS = 2.0
CREATION_DATE  = 
ORIGINATOR     = 

OBJECT_NAME    = ISS OBJECT XT
OBJECT_ID      = 1998-067XT
CENTER_NAME    = EARTH
REF_FRAME      = TEME
TIME_SYSTEM    = UTC
MEAN_ELEMENT_THEORY = SGP/SGP4

EPOCH          = 2026-02-17T08:32:10.102272
MEAN_MOTION    = 15.63618400
ECCENTRICITY   = .0002602
INCLINATION    = 51.6271
RA_OF_ASC_NODE = 168.8746
ARG_OF_PERICENTER = 324.2562
MEAN_ANOMALY   = 35.8258

EPHEMERIS_TYPE = 0
CLASSIFICATION_TYPE = U
NORAD_CAT_ID   = 66907
ELEMENT_SET_NO = 999
REV_AT_EPOCH   = 1199
BSTAR          = .13037E-2
MEAN_MOTION_DOT = .125041E-2
MEAN_MOTION_DDOT = 0

CCSDS_OMM_VERS = 2.0
CREATION_DATE  = 
ORIGINATOR     = 

OBJECT_NAME    = ISS OBJECT XU
OBJECT_ID      = 1998-067XU
CENTER_NAME    = EARTH
REF_FRAME      = TEME
TIME_SYSTEM    = UTC
MEAN_ELEMENT_THEORY = SGP/SGP4

EPOCH          = 2026-02-17T08:31:02.940096
MEAN_MOTION    = 15.63675292
ECCENTRICITY   = .0002604
INCLINATION    = 51.6262
RA_OF_ASC_NODE = 168.8668
ARG_OF_PERICENTER = 330.7094
MEAN_ANOMALY   = 29.3754

EPHEMERIS_TYPE = 0
CLASSIFICATION_TYPE = U
NORAD_CAT_ID   = 66908
ELEMENT_SET_NO = 999
REV_AT_EPOCH   = 1199
BSTAR          = .13425E-2
MEAN_MOTION_DOT = .129139E-2
MEAN_MOTION_DDOT = 0

CCSDS_OMM_VERS = 2.0
CREATION_DATE  = 
ORIGINATOR     = 

OBJECT_NAME    = SILVERSAT
OBJECT_ID      = 1998-067XV
CENTER_NAME    = EARTH
REF_FRAME      = TEME
TIME_SYSTEM    = UTC
MEAN_ELEMENT_THEORY = SGP/SGP4

EPOCH          = 2026-02-17T12:18:05.253984
MEAN_MOTION    = 15.65443029
ECCENTRICITY   = .0003387
INCLINATION    = 51.6273
RA_OF_ASC_NODE = 167.6704
ARG_OF_PERICENTER = 323.8239
MEAN_ANOMALY   = 36.2526

EPHEMERIS_TYPE = 0
CLASSIFICATION_TYPE = U
NORAD_CAT_ID   = 66909
ELEMENT_SET_NO = 999
REV_AT_EPOCH   = 1202
BSTAR          = .1439E-2
MEAN_MOTION_DOT = .148911E-2
MEAN_MOTION_DDOT = 0

