YOTSUBA-KULOVER         
1 65941U 98067XN  26048.29454544  .00151622  00000+0  10588-2 0  9992
2 65941  51.6249 162.4501 0004940 319.7640  40.2992 15.73292951 20282
BOTAN                   
1 65942U 98067XP  26048.27341133  .00491628  10444-3  14794-2 0  9993
2 65942  51.6160 157.7353 0009000 339.1028  20.9609 15.91598962 20343
E-KAGAKU-1              
1 65943U 98067XQ  26048.29602772  .00149960  00000+0  10541-2 0  9993
2 65943  51.6273 162.4733 0004952 332.5511  27.5225 15.73144865 20288
HRC MONOBLOCK CAMERA    
1 66052U 98067XR  26048.34298323  .00049612  00000+0  60321-3 0  9999
2 66052  51.6288 168.0441 0002182  16.0438 344.0624 15.60051287 19211
HTV-X1                  
1 66174U 25241A   26048.18286298  .00009660  00000+0  18518-3 0  9998
2 66174  51.6319 173.7204 0011018 107.0393 253.1803 15.48657976   515
SZ-21 MODULE            
1 66515U 25246C   26048.17866810  .00037852  00000+0  34761-3 0  9997
2 66515  41.4766 329.4655 0001967 297.4736  62.5905 15.66957917 14859
SHENZHOU-22             
1 66645U 25272A   26048.23206423  .00029154  00000+0  35627-3 0  9993
2 66645  41.4683 332.5551 0004162 122.3722 237.7519 15.59770251267642
SOYUZ-MS 28             
1 66664U 25275A   26048.44098000  .00009950  00000+0  19045-3 0  9998
2 66664  51.6319 172.4442 0011010 107.8523 252.3667 15.48663917553192
DUPLEX                  
1 66906U 98067XS  26048.34867699  .00038995  00000+0  57903-3 0  9999
2 66906  51.6298 171.0819 0001428  65.9788 294.1352 15.54801882 11960
ISS OBJECT XT           
1 66907U 98067XT  26048.35567248  .00125041  00000+0  13037-2 0  9996
2 66907  51.6271 168.8746 0002602 324.2562  35.8258 15.63618400 11991
ISS OBJECT XU           
1 66908U 98067XU  26048.35489514  .00129139  00000+0  13425-2 0  9999
2 66908  51.6262 168.8668 0002604 330.7094  29.3754 15.63675292 11990
SILVERSAT               
1 66909U 98067XV  26048.51256081  .00148911  00000+0  14390-2 0  9990
2 66909  51.6273 167.6704 0003387 323.8239  36.2526 15.65443029 12026
